{"type": "FeatureCollection", "features": [ {"type": "Feature", "properties": {"norad_id": 30629, "name": "FENGYUN 1C DEB", "group": "fengyun-1c-debris", "lat": 35.08107437490818, "lon": 75.04342125346803, "alt_km": 697.5444887951317, "timestamp": "2025-12-11T18:59:46.351029+00:00", "meta": {"OBJECT_NAME": "FENGYUN 1C DEB", "OBJECT_ID": "1999-025ANL", "EPOCH": "2025-12-11T05:48:03.139200", "MEAN_MOTION": 14.59499249, "ECCENTRICITY": 0.00076688, "INCLINATION": 99.2511, "RA_OF_ASC_NODE": 81.0041, "ARG_OF_PERICENTER": 201.0613, "MEAN_ANOMALY": 187.5176, "EPHEMERIS_TYPE": 0, "CLASSIFICATION_TYPE": "U", "NORAD_CAT_ID": 30629, "ELEMENT_SET_NO": 999, "REV_AT_EPOCH": 97868, "BSTAR": 0.0046504314, "MEAN_MOTION_DOT": 0.00022097, "MEAN_MOTION_DDOT": 0}, "tle": {"line1": "1 30629U 99025ANL 25345.24170300  .00022097  00000+0  46504-2 0  9991", "line2": "2 30629  99.2511  81.0041 0007668 201.0613 187.5176 14.59499249978682"}}, "geometry": {"type": "Point", "coordinates": [75.04342125346803, 35.08107437490818]}}, {"type": "Feature", "properties": {"norad_id": 30630, "name": "FENGYUN 1C DEB", "group": "fengyun-1c-debris", "lat": 57.33120426919865, "lon": -6.614434143649125, "alt_km": 798.3554845126919, "timestamp": "2025-12-11T18:59:46.351039+00:00", "meta": {"OBJECT_NAME": "FENGYUN 1C DEB", "OBJECT_ID": "1999-025ANM", "EPOCH": "2025-12-10T10:39:01.574208", "MEAN_MOTION": 14.22363681, "ECCENTRICITY": 0.00259802, "INCLINATION": 99.1729, "RA_OF_ASC_NODE": 157.3885, "ARG_OF_PERICENTER": 81.0772, "MEAN_ANOMALY": 342.8563, "EPHEMERIS_TYPE": 0, "CLASSIFICATION_TYPE": "U", "NORAD_CAT_ID": 30630, "ELEMENT_SET_NO": 999, "REV_AT_EPOCH": 97180, "BSTAR": 0.0013137827, "MEAN_MOTION_DOT": 2.886e-05, "MEAN_MOTION_DDOT": 0}, "tle": {"line1": "1 30630U 99025ANM 25344.44376822  .00002886  00000+0  13138-2 0  9992", "line2": "2 30630  99.1729 157.3885 0025980  81.0772 342.8563 14.22363681971809"}}, "geometry": {"type": "Point", "coordinates": [-6.614434143649125, 57.33120426919865]}}, {"type": "Feature", "properties": {"norad_id": 30632, "name": "FENGYUN 1C DEB", "group": "fengyun-1c-debris", "lat": 5.2921644920351625, "lon": -62.09855498055451, "alt_km": 675.9654678504467, "timestamp": "2025-12-11T18:59:46.351050+00:00", "meta": {"OBJECT_NAME": "FENGYUN 1C DEB", "OBJECT_ID": "1999-025ANP", "EPOCH": "2025-12-11T06:59:46.212576", "MEAN_MOTION": 14.62672381, "ECCENTRICITY": 0.00152054, "INCLINATION": 98.8235, "RA_OF_ASC_NODE": 116.543, "ARG_OF_PERICENTER": 172.9154, "MEAN_ANOMALY": 250.2856, "EPHEMERIS_TYPE": 0, "CLASSIFICATION_TYPE": "U", "NORAD_CAT_ID": 30632, "ELEMENT_SET_NO": 999, "REV_AT_EPOCH": 97670, "BSTAR": 0.0075603022, "MEAN_MOTION_DOT": 0.00038699, "MEAN_MOTION_DDOT": 0}, "tle": {"line1": "1 30632U 99025ANP 25345.29150709  .00038699  00000+0  75603-2 0  9998", "line2": "2 30632  98.8235 116.5430 0015205 172.9154 250.2856 14.62672381976700"}}, "geometry": {"type": "Point", "coordinates": [-62.09855498055451, 5.2921644920351625]}}, {"type": "Feature", "properties": {"norad_id": 30633, "name": "FENGYUN 1C DEB", "group": "fengyun-1c-debris", "lat": -78.35217656433514, "lon": -15.072763657061804, "alt_km": 791.3767314011629, "timestamp": "2025-12-11T18:59:46.351060+00:00", "meta": {"OBJECT_NAME": "FENGYUN 1C DEB", "OBJECT_ID": "1999-025ANQ", "EPOCH": "2025-12-11T04:41:22.329312", "MEAN_MOTION": 14.04381313, "ECCENTRICITY": 0.01303656, "INCLINATION": 98.4204, "RA_OF_ASC_NODE": 210.3098, "ARG_OF_PERICENTER": 264.6099, "MEAN_ANOMALY": 225.2081, "EPHEMERIS_TYPE": 0, "CLASSIFICATION_TYPE": "U", "NORAD_CAT_ID": 30633, "ELEMENT_SET_NO": 999, "REV_AT_EPOCH": 95870, "BSTAR": 0.001203637, "MEAN_MOTION_DOT": 2.026e-05, "MEAN_MOTION_DDOT": 0}, "tle": {"line1": "1 30633U 99025ANQ 25345.19539733  .00002026  00000+0  12036-2 0  9992", "line2": "2 30633  98.4204 210.3098 0130365 264.6099 225.2081 14.04381313958708"}}, "geometry": {"type": "Point", "coordinates": [-15.072763657061804, -78.35217656433514]}}, {"type": "Feature", "properties": {"norad_id": 30634, "name": "FENGYUN 1C DEB", "group": "fengyun-1c-debris", "lat": -68.06511685851487, "lon": 124.5908326822016, "alt_km": 943.599317529287, "timestamp": "2025-12-11T18:59:46.351070+00:00", "meta": {"OBJECT_NAME": "FENGYUN 1C DEB", "OBJECT_ID": "1999-025ANR", "EPOCH": "2025-12-10T21:31:47.152992", "MEAN_MOTION": 14.09686013, "ECCENTRICITY": 0.0120702, "INCLINATION": 99.2927, "RA_OF_ASC_NODE": 327.6575, "ARG_OF_PERICENTER": 101.7489, "MEAN_ANOMALY": 290.9015, "EPHEMERIS_TYPE": 0, "CLASSIFICATION_TYPE": "U", "NORAD_CAT_ID": 30634, "ELEMENT_SET_NO": 999, "REV_AT_EPOCH": 95591, "BSTAR": 0.0030569, "MEAN_MOTION_DOT": 5.694e-05, "MEAN_MOTION_DDOT": 0}, "tle": {"line1": "1 30634U 99025ANR 25344.89707353  .00005694  00000+0  30569-2 0  9999", "line2": "2 30634  99.2927 327.6575 0120702 101.7489 290.9015 14.09686013955916"}}, "geometry": {"type": "Point", "coordinates": [124.5908326822016, -68.06511685851487]}}, {"type": "Feature", "properties": {"norad_id": 30639, "name": "FENGYUN 1C DEB", "group": "fengyun-1c-debris", "lat": -18.07434471581247, "lon": -85.23100285712324, "alt_km": 785.1245292217654, "timestamp": "2025-12-11T18:59:46.351080+00:00", "meta": {"OBJECT_NAME": "FENGYUN 1C DEB", "OBJECT_ID": "1999-025ANW", "EPOCH": "2025-12-10T18:35:40.511616", "MEAN_MOTION": 14.32280292, "ECCENTRICITY": 0.0067372, "INCLINATION": 99.018, "RA_OF_ASC_NODE": 96.6831, "ARG_OF_PERICENTER": 286.9572, "MEAN_ANOMALY": 72.4233, "EPHEMERIS_TYPE": 0, "CLASSIFICATION_TYPE": "U", "NORAD_CAT_ID": 30639, "ELEMENT_SET_NO": 999, "REV_AT_EPOCH": 96691, "BSTAR": 0.0047038809, "MEAN_MOTION_DOT": 0.0001299, "MEAN_MOTION_DDOT": 0}, "tle": {"line1": "1 30639U 99025ANW 25344.77477444  .00012990  00000+0  47039-2 0  9993", "line2": "2 30639  99.0180  96.6831 0067372 286.9572  72.4233 14.32280292966912"}}, "geometry": {"type": "Point", "coordinates": [-85.23100285712324, -18.07434471581247]}}, {"type": "Feature", "properties": {"norad_id": 30640, "name": "FENGYUN 1C DEB", "group": "fengyun-1c-debris", "lat": 33.57609907590182, "lon": 50.90663849952811, "alt_km": 820.1184497727199, "timestamp": "2025-12-11T18:59:46.351091+00:00", "meta": {"OBJECT_NAME": "FENGYUN 1C DEB", "OBJECT_ID": "1999-025ANX", "EPOCH": "2025-12-10T23:18:28.999008", "MEAN_MOTION": 14.14615101, "ECCENTRICITY": 0.0081027, "INCLINATION": 99.0567, "RA_OF_ASC_NODE": 56.1524, "ARG_OF_PERICENTER": 105.5479, "MEAN_ANOMALY": 74.1017, "EPHEMERIS_TYPE": 0, "CLASSIFICATION_TYPE": "U", "NORAD_CAT_ID": 30640, "ELEMENT_SET_NO": 999, "REV_AT_EPOCH": 96420, "BSTAR": 0.0020585, "MEAN_MOTION_DOT": 4.039e-05, "MEAN_MOTION_DDOT": 0}, "tle": {"line1": "1 30640U 99025ANX 25344.97116897  .00004039  00000+0  20585-2 0  9991", "line2": "2 30640  99.0567  56.1524 0081027 105.5479  74.1017 14.14615101964208"}}, "geometry": {"type": "Point", "coordinates": [50.90663849952811, 33.57609907590182]}}, {"type": "Feature", "properties": {"norad_id": 30641, "name": "FENGYUN 1C DEB", "group": "fengyun-1c-debris", "lat": 55.16008497145455, "lon": 113.13554241483972, "alt_km": 532.3753674918453, "timestamp": "2025-12-11T18:59:46.351101+00:00", "meta": {"OBJECT_NAME": "FENGYUN 1C DEB", "OBJECT_ID": "1999-025ANY", "EPOCH": "2025-12-11T07:47:41.397216", "MEAN_MOTION": 14.78944988, "ECCENTRICITY": 0.013616, "INCLINATION": 98.9418, "RA_OF_ASC_NODE": 279.5434, "ARG_OF_PERICENTER": 131.0422, "MEAN_ANOMALY": 29.3949, "EPHEMERIS_TYPE": 0, "CLASSIFICATION_TYPE": "U", "NORAD_CAT_ID": 30641, "ELEMENT_SET_NO": 999, "REV_AT_EPOCH": 511, "BSTAR": 0.00087143095, "MEAN_MOTION_DOT": 7.454e-05, "MEAN_MOTION_DDOT": 0}, "tle": {"line1": "1 30641U 99025ANY 25345.32478469  .00007454  00000+0  87143-3 0  9996", "line2": "2 30641  98.9418 279.5434 0136160 131.0422  29.3949 14.78944988  5114"}}, "geometry": {"type": "Point", "coordinates": [113.13554241483972, 55.16008497145455]}}, {"type": "Feature", "properties": {"norad_id": 30646, "name": "FENGYUN 1C DEB", "group": "fengyun-1c-debris", "lat": 77.58562418104214, "lon": -129.86659398851583, "alt_km": 837.8258416072158, "timestamp": "2025-12-11T18:59:46.351111+00:00", "meta": {"OBJECT_NAME": "FENGYUN 1C DEB", "OBJECT_ID": "1999-025APD", "EPOCH": "2025-12-11T01:29:51.230400", "MEAN_MOTION": 14.09646191, "ECCENTRICITY": 0.00483217, "INCLINATION": 98.6522, "RA_OF_ASC_NODE": 5.6672, "ARG_OF_PERICENTER": 36.9354, "MEAN_ANOMALY": 323.5128, "EPHEMERIS_TYPE": 0, "CLASSIFICATION_TYPE": "U", "NORAD_CAT_ID": 30646, "ELEMENT_SET_NO": 999, "REV_AT_EPOCH": 96581, "BSTAR": 0.0010119034, "MEAN_MOTION_DOT": 1.751e-05, "MEAN_MOTION_DDOT": 0}, "tle": {"line1": "1 30646U 99025APD 25345.06239850  .00001751  00000+0  10119-2 0  9993", "line2": "2 30646  98.6522   5.6672 0048321  36.9354 323.5128 14.09646191965811"}}, "geometry": {"type": "Point", "coordinates": [-129.86659398851583, 77.58562418104214]}}, {"type": "Feature", "properties": {"norad_id": 30647, "name": "FENGYUN 1C DEB", "group": "fengyun-1c-debris", "lat": 37.13812421293734, "lon": -89.1239536640187, "alt_km": 717.6452466910214, "timestamp": "2025-12-11T18:59:46.351122+00:00", "meta": {"OBJECT_NAME": "FENGYUN 1C DEB", "OBJECT_ID": "1999-025APE", "EPOCH": "2025-12-09T19:08:21.104736", "MEAN_MOTION": 14.56380638, "ECCENTRICITY": 0.00290263, "INCLINATION": 98.989, "RA_OF_ASC_NODE": 275.6135, "ARG_OF_PERICENTER": 183.5234, "MEAN_ANOMALY": 205.572, "EPHEMERIS_TYPE": 0, "CLASSIFICATION_TYPE": "U", "NORAD_CAT_ID": 30647, "ELEMENT_SET_NO": 999, "REV_AT_EPOCH": 97946, "BSTAR": 0.0035531129, "MEAN_MOTION_DOT": 0.00015834, "MEAN_MOTION_DDOT": 0}, "tle": {"line1": "1 30647U 99025APE 25343.79746649  .00015834  00000+0  35531-2 0  9993", "line2": "2 30647  98.9890 275.6135 0029026 183.5234 205.5720 14.56380638979469"}}, "geometry": {"type": "Point", "coordinates": [-89.1239536640187, 37.13812421293734]}}]}